{
    "links": {
        "self": "http://www.neowsapp.com/rest/v1/neo/54017546?api_key=iIulBulltgU6a56xZRHN4H3l9WmuAYTsLGpBGhQ2"
    },
    "id": "54017546",
    "neo_reference_id": "54017546",
    "name": "(2020 MT)",
    "designation": "2020 MT",
    "nasa_jpl_url": "http://ssd.jpl.nasa.gov/sbdb.cgi?sstr=54017546",
    "absolute_magnitude_h": 25.99,
    "estimated_diameter": {
        "kilometers": {
            "estimated_diameter_min": 0.0168482569,
            "estimated_diameter_max": 0.0376738478
        },
        "meters": {
            "estimated_diameter_min": 16.8482569252,
            "estimated_diameter_max": 37.6738477871
        },
        "miles": {
            "estimated_diameter_min": 0.0104690183,
            "estimated_diameter_max": 0.0234094365
        },
        "feet": {
            "estimated_diameter_min": 55.2764352505,
            "estimated_diameter_max": 123.601866774
        }
    },
    "is_potentially_hazardous_asteroid": false,
    "close_approach_data": [
        {
            "close_approach_date": "2020-06-12",
            "close_approach_date_full": "2020-Jun-12 07:26",
            "epoch_date_close_approach": 1591946760000,
            "relative_velocity": {
                "kilometers_per_second": "8.4168981733",
                "kilometers_per_hour": "30300.8334237485",
                "miles_per_hour": "18827.7595237731"
            },
            "miss_distance": {
                "astronomical": "0.0105541773",
                "lunar": "4.1055749697",
                "kilometers": "1578882.443682351",
                "miles": "981072.0575884038"
            },
            "orbiting_body": "Earth"
        }
    ],
    "orbital_data": {
        "orbit_id": "1",
        "orbit_determination_date": "2020-06-21 05:12:08",
        "first_observation_date": "2020-06-17",
        "last_observation_date": "2020-06-21",
        "data_arc_in_days": 4,
        "observations_used": 15,
        "orbit_uncertainty": "8",
        "minimum_orbit_intersection": ".0104995",
        "jupiter_tisserand_invariant": "3.408",
        "epoch_osculation": "2459020.5",
        "eccentricity": ".5551610668958396",
        "semi_major_axis": "2.245988866599514",
        "inclination": "2.654624297832147",
        "ascending_node_longitude": "93.0767584282614",
        "orbital_period": "1229.447039634758",
        "perihelion_distance": ".9991032911819502",
        "perihelion_argument": "148.7635397366784",
        "aphelion_distance": "3.492874442017077",
        "perihelion_time": "2458996.640463481285",
        "mean_anomaly": "6.986419804865394",
        "mean_motion": ".2928145649176953",
        "equinox": "J2000",
        "orbit_class": {
            "orbit_class_type": "APO",
            "orbit_class_description": "Near-Earth asteroid orbits which cross the Earth’s orbit similar to that of 1862 Apollo",
            "orbit_class_range": "a (semi-major axis) > 1.0 AU; q (perihelion) < 1.017 AU"
        }
    },
    "is_sentry_object": false
}